QIANFAN-9               
1 60387U 24140J   25317.13271514  .00000086  00000+0  11498-3 0  9996
2 60387  88.9737 302.4046 0014412 286.1488  73.8076 13.50976503 63331
QIANFAN-10              
1 60388U 24140K   25317.13690584  .00000082  00000+0  10915-3 0  9998
2 60388  88.9746 301.7483 0012738 260.3698  99.6014 13.50977393 63465
QIANFAN-11              
1 60389U 24140L   25317.09985752  .00000075  00000+0  97931-4 0  9994
2 60389  88.9673 302.3616 0012447 286.2979  73.6802 13.50973530 63114
QIANFAN-12              
1 60390U 24140M   25317.19443744  .00000079  00000+0  10417-3 0  9994
2 60390  88.9716 302.3822 0011397 295.8496  64.1479 13.50974168 63254
QIANFAN-13              
1 60391U 24140N   25317.09158196  .00000081  00000+0  10699-3 0  9993
2 60391  88.9728 302.4892 0011274 299.3160  60.6864 13.50974528 63267
QIANFAN-14              
1 60392U 24140P   25317.11616603  .00000078  00000+0  10194-3 0  9995
2 60392  88.9707 302.3906 0014953 297.8701  62.0935 13.50974474 63277
QIANFAN-15              
1 60393U 24140Q   25317.12442162  .00000084  00000+0  11110-3 0  9990
2 60393  88.9730 302.3391 0010525 283.4052  76.5925 13.50972887 63267
QIANFAN-16              
1 60394U 24140R   25317.18629788  .00000071  00000+0  90768-4 0  9991
2 60394  88.9733 302.4520 0012971 302.6298  57.3601 13.50973379 63185
